[{"OBJECT_NAME":"ION SCV-004","OBJECT_ID":"2022-002K","EPOCH":"2026-03-09T16:32:03.244416","MEAN_MOTION":15.29369331,"ECCENTRICITY":0.00072157,"INCLINATION":97.2961,"RA_OF_ASC_NODE":128.2294,"ARG_OF_PERICENTER":1.6783,"MEAN_ANOMALY":358.448,"EPHEMERIS_TYPE":0,"CLASSIFICATION_TYPE":"U","NORAD_CAT_ID":50993,"ELEMENT_SET_NO":999,"REV_AT_EPOCH":23008,"BSTAR":0.00023198467,"MEAN_MOTION_DOT":6.538e-5,"MEAN_MOTION_DDOT":0},{"OBJECT_NAME":"STARLINK-30952","OBJECT_ID":"2023-180D","EPOCH":"2026-03-09T22:00:01.999584","MEAN_MOTION":15.27552863,"ECCENTRICITY":0.00014558,"INCLINATION":43.0047,"RA_OF_ASC_NODE":51.3804,"ARG_OF_PERICENTER":267.9266,"MEAN_ANOMALY":301.2059,"EPHEMERIS_TYPE":0,"CLASSIFICATION_TYPE":"U","NORAD_CAT_ID":58405,"ELEMENT_SET_NO":999,"REV_AT_EPOCH":573,"BSTAR":0.0015252634,"MEAN_MOTION_DOT":0.00041914,"MEAN_MOTION_DDOT":0}]
